{"type":"Topology","bbox":[-73.990238,-33.751358,-32.390875,5.270972],"objects":{"states":{"type":"GeometryCollection","geometries":[{"type":"MultiPolygon","arcs":[[[0,1,2]]],"properties":{"sigla":"AC","name":"Acre"}},{"type":"MultiPolygon","arcs":[[[3,4,5,6],[7]]],"properties":{"sigla":"AL","name":"Alagoas"}},{"type":"MultiPolygon","arcs":[[[8,9,10,11,-3,12]]],"properties":{"sigla":"AM","name":"Amazonas"}},{"type":"MultiPolygon","arcs":[[[13,14]]],"properties":{"sigla":"AP","name":"Amapá"}},{"type":"MultiPolygon","arcs":[[[-6,15,16,17,18,19,20,21,22],[23]]],"properties":{"sigla":"BA","name":"Bahia"}},{"type":"MultiPolygon","arcs":[[[24,25,26,27,28,29]],[[30]]],"properties":{"sigla":"CE","name":"Ceará"}},{"type":"MultiPolygon","arcs":[[[31,32,33,-18,34,35],[36],[37]],[[38]],[[39]]],"properties":{"sigla":"ES","name":"Espírito Santo"}},{"type":"MultiPolygon","arcs":[[[-20,40,41,42,43,44,45]]],"properties":{"sigla":"GO","name":"Goiás"}},{"type":"MultiPolygon","arcs":[[[46,47,48,49,50,51,52,53,54,55,56,57,58,59,60,61],[62],[63],[64],[65],[66],[67],[68],[69],[70],[71],[72],[73],[74],[75],[76],[77],[78]],[[79],[80],[81]],[[82,83],[84]],[[85]],[[86]],[[87]],[[88]],[[89]],[[90]],[[91]],[[92]],[[93,94]],[[95]],[[96,97]],[[98]],[[99]],[[100]],[[101]],[[102]],[[103]],[[104]],[[105]],[[106]],[[107]],[[108]],[[109]],[[110]],[[111]],[[112]],[[113]],[[114]],[[115]],[[116]],[[117]],[[118]],[[119]],[[120]],[[121]],[[122]],[[123]],[[124]],[[125]],[[126]],[[127]],[[128]],[[129]],[[130]],[[131]],[[132]],[[133]],[[134]],[[135]],[[136]]],"properties":{"sigla":"MA","name":"Maranhão"}},{"type":"MultiPolygon","arcs":[[[-34,137,138,139,-43,140,-41,-19]]],"properties":{"sigla":"MG","name":"Minas Gerais"}},{"type":"MultiPolygon","arcs":[[[141,-44,-140,142,143,144,145]],[[146]]],"properties":{"sigla":"MS","name":"Mato Grosso do Sul"}},{"type":"MultiPolygon","arcs":[[[147,-11,148,149,-45,-142,150,-146,151,152]],[[153]]],"properties":{"sigla":"MT","name":"Mato Grosso"}},{"type":"MultiPolygon","arcs":[[[154,-48,155,-149,-10,156,157,-14,158]],[[159]],[[160]],[[161]],[[162]],[[163]],[[164]],[[165]],[[166]],[[167]],[[168]],[[169]],[[170]],[[171]],[[172]],[[173]]],"properties":{"sigla":"PA","name":"Pará"}},{"type":"MultiPolygon","arcs":[[[174,175,-27,176]],[[177]]],"properties":{"sigla":"PB","name":"Paraíba"}},{"type":"MultiPolygon","arcs":[[[178,-7,-23,179,-28,-176]],[[180]],[[181]]],"properties":{"sigla":"PE","name":"Pernambuco"}},{"type":"MultiPolygon","arcs":[[[-29,-180,-22,182,-61,183]]],"properties":{"sigla":"PI","name":"Piauí"}},{"type":"MultiPolygon","arcs":[[[184,185,186,187,188,-144,189]]],"properties":{"sigla":"PR","name":"Paraná"}},{"type":"MultiPolygon","arcs":[[[190,191,-138,-33,192,193,194,195],[196]],[[197]],[[198]],[[199]],[[200]],[[201]],[[202]],[[203]],[[204]],[[205]],[[206]],[[207]],[[208]],[[209]],[[210]],[[211]],[[212]],[[213]],[[214]],[[215]],[[216]],[[217]],[[218]],[[219]],[[220]],[[221]],[[222]],[[223]],[[224]],[[225]],[[226]],[[227]],[[228]],[[229]],[[230]],[[231]]],"properties":{"sigla":"RJ","name":"Rio de Janeiro"}},{"type":"MultiPolygon","arcs":[[[-177,-26,232]]],"properties":{"sigla":"RN","name":"Rio Grande do Norte"}},{"type":"MultiPolygon","arcs":[[[233,-1,-12,-148,234,-153,235]],[[236]]],"properties":{"sigla":"RO","name":"Rondônia"}},{"type":"MultiPolygon","arcs":[[[-157,-9,237]]],"properties":{"sigla":"RR","name":"Roraima"}},{"type":"MultiPolygon","arcs":[[[238,239,240,241,242,243,244,245,246,247,248]],[[249]],[[250]],[[251]],[[252]],[[253]],[[254]],[[255]],[[256]],[[257]],[[258]],[[259]],[[260]],[[261]]],"properties":{"sigla":"RS","name":"Rio Grande do Sul"}},{"type":"MultiPolygon","arcs":[[[-188,186,-186,262,-243,263,-242,264,-241,265,-240,266]],[[267]],[[268]]],"properties":{"sigla":"SC","name":"Santa Catarina"}},{"type":"MultiPolygon","arcs":[[[269,-16,-5]]],"properties":{"sigla":"SE","name":"Sergipe"}},{"type":"MultiPolygon","arcs":[[[-190,-143,-139,-192,270]],[[271]],[[272]],[[273]],[[274]],[[275]],[[276]],[[277]],[[278]],[[279]],[[280]],[[281]],[[282]],[[283]],[[284]],[[285]],[[286]],[[287]],[[288]],[[289]],[[290]],[[291]],[[292]],[[293]],[[294]]],"properties":{"sigla":"SP","name":"São Paulo"}},{"type":"MultiPolygon","arcs":[[[-62,-183,-21,-46,-150,-156,-47,295]]],"properties":{"sigla":"TO","name":"Tocantins"}},{"type":"MultiPolygon","arcs":[[[-141,-42]]],"properties":{"sigla":"DF","name":"Distrito Federal"}}]}},"arcs":[[[-66.80595616708167,-9.814040958229583],[-66.6191731593816,-9.893647307493076]],[[-66.6191731593816,-9.893647307493076],[-67.01145907533076,-10.254217242392425],[-67.32179342665427,-10.322116775587759],[-67.70742337796378,-10.70805147863479],[-68.02857367182672,-10.655761033530336],[-68.27817234581346,-10.989405291472917],[-68.71580202087021,-11.143154809168095],[-68.75781779765798,-11.000721880338805],[-69.95422744163442,-10.926968939109393],[-70.16056234546346,-11.039744600566006],[-70.62148789675898,-10.99955119873199],[-70.61067195421954,-9.45659284094841],[-71.21220475852759,-9.966619794317946],[-72.18023161580616,-9.999789106511066],[-72.2850630588806,-9.539711235032353],[-72.73766865437655,-9.410155803878041],[-73.2148181194812,-9.410936258282586],[-72.93942758251583,-9.061682912249125],[-73.27971377471775,-8.474781200032002],[-73.5368004089241,-8.345615996079964],[-73.68364762878629,-7.77588428076281],[-73.98191804420044,-7.566332273142734],[-73.71692745198453,-7.327903452554526],[-73.8038709900899,-7.110937128091283]],[[-73.8038709900899,-7.110937128091283],[-72.65862907428075,-7.624476126281266],[-70.3689772382424,-8.141136942089421],[-68.78444165621657,-8.97232088292883],[-66.80595616708167,-9.814040958229583]],[[-35.15185233208332,-8.913006348183483],[-36.393605735167355,-10.49810924381244]],[[-36.393605735167355,-10.49810924381244],[-37.152385704087045,-9.900281169931702],[-38.00310118459185,-9.514736694086942]],[[-38.00310118459185,-9.514736694086942],[-38.23689194255943,-9.329378773007733]],[[-38.23689194255943,-9.329378773007733],[-37.75974247745478,-8.857203858258586],[-36.9518747693177,-9.382059445314454],[-36.6036846191062,-9.340695361873621],[-36.126535154001544,-8.955541113231135],[-35.467178656886574,-8.814669093210934],[-35.15185233208332,-8.913006348183483]],[[-35.29079559393594,-9.148313351153515],[-35.29079559393594,-9.148313351153515]],[[-63.371894410814114,2.2119809613896138],[-62.70546595126952,1.9399926014060114],[-62.80405742749428,1.5907392553725543],[-62.445051334743354,0.9773020934009296],[-62.52783489494895,0.7103866870468707],[-62.414267498284985,0.07470657454574336],[-62.18796470053701,-0.3303492614126142],[-62.50953099218992,-0.758818729507297],[-62.01698960885609,-1.1412413877338778],[-61.89593425197252,-1.3948890692106914],[-61.60431980119802,-1.4479599687196867],[-61.456224587965885,-0.6565792025120274],[-61.08681855046551,-0.4997078671986728],[-60.530629505265054,-0.8747162085820861],[-60.30931868099681,-0.7244787357073577],[-60.399590201422015,-0.5098537744577456],[-60.03725612635127,0.26396676764767335],[-58.89492619507195,0.26396676764767335]],[[-58.89492619507195,0.26396676764767335],[-58.87163031883319,-0.34283653188531815],[-58.42942466808668,-1.0269048174681785],[-57.78338010025101,-1.507664730667308],[-57.097399744577444,-1.7745801370213705],[-56.41349937785378,-2.175733700957011],[-56.4018514397344,-2.4563070593905962],[-58.26219355651557,-6.468623153151533],[-58.43400064377644,-6.908409210112104],[-58.13656222394224,-7.355999811118114]],[[-58.13656222394224,-7.355999811118114],[-58.382416917819185,-7.838710860328604],[-58.28590543054431,-8.08689536097361],[-58.49972829459295,-8.802572049940501],[-61.582271918329184,-8.79827955071551]],[[-61.582271918329184,-8.79827955071551],[-62.12431703867039,-8.801401368333686],[-62.36018778558786,-8.398296668386685],[-62.86604109820099,-7.975680608326083],[-63.62024509143092,-7.969046745887461],[-64.14107432448324,-8.944614751567517],[-64.79876683043831,-8.985198380603808],[-65.14238100496006,-9.446446933689337],[-65.24638045245453,-9.257186740587407],[-65.7231139197692,-9.55883236794368],[-65.9698006092261,-9.412887394293946],[-66.4082622798628,-9.40664375905759],[-66.80595616708167,-9.814040958229583]],[[-73.8038709900899,-7.110937128091283],[-73.61791997796979,-6.740611513135132],[-73.10873868303683,-6.409308618406186],[-73.2489299382594,-6.144344348063484],[-72.96147546538467,-5.653828754807549],[-72.8853478698187,-5.166044751967522],[-71.74884190759909,-4.472220786327863],[-70.94305418841189,-4.385200120221203],[-70.75876716745168,-4.159648797307973],[-70.32571346808469,-4.145990845228454],[-70.18593821065211,-4.364908305703057],[-69.93509154329544,-4.215841514435144],[-69.42882223289233,-1.3863040707607084],[-69.42133427267274,-0.9999791405114067],[-69.61435724722247,-0.5055612752327505],[-70.05697889575896,-0.18635542377423775],[-70.04283497089972,0.5593687597675938],[-69.11432790366904,0.650291697896975],[-69.32107880528805,1.0963213900938982],[-69.84398802729028,1.0857852556325582],[-69.8414920405504,1.7210751409314113],[-68.15628499334994,1.7320015025950255],[-67.38876907084071,2.244369819178189],[-67.09673862227623,1.733172184201841],[-67.08758667089671,1.167342740907408],[-66.856291899669,1.230559547675476],[-66.3179907594376,0.75526281530815],[-65.58500265349655,1.0093007239872378],[-65.44231541153412,0.6904850997309993],[-64.8099987707677,1.314848623366231],[-64.32536134544345,1.4362092832728308],[-64.06078675101752,1.7019540080200812],[-64.05995475543756,1.9314076029560283],[-63.371894410814114,2.2119809613896138]],[[-50.093660952509524,0.702582143001429],[-50.43602713366134,0.6003426160061593],[-50.57954637120372,0.2702104028840253],[-51.2160229898699,-0.11845589057890749],[-51.683604505805064,-0.7970609953299572],[-51.68693248812488,-1.0354898159181616],[-52.06257849247493,-1.1908002424224264],[-52.41950459627597,-1.0522695856158606],[-52.53473598409984,-0.573851035630355],[-52.933261866898675,-0.13913793229932736],[-53.174956582875836,0.38220560993610064],[-53.1059009497395,0.6842414644946402],[-53.41082732979331,0.9296943747237449],[-53.59469835296353,1.358554070020702],[-54.08807173187732,1.4924020004000056],[-54.377190195911965,1.7640001331813338],[-54.744100246672474,1.7760971764517635],[-54.87181156819568,2.4340202394823933]],[[-54.87181156819568,2.4340202394823933],[-54.18832719926199,2.179201876398764],[-53.74820153746538,2.313049806778068],[-52.984013597275975,2.157739380273803],[-52.55387188243883,2.5167484063640657],[-52.48315225814258,2.7770299502794984],[-51.92363523062231,3.783816132141318],[-51.645748706917075,4.044878130461306],[-51.55339719754198,4.41520374541745],[-51.074999739067394,3.890738385563857],[-51.087063674976754,3.392028021060213],[-50.702265719247194,2.138618247362473],[-50.4555790297903,2.204176417344172],[-50.23759618784188,1.8034130806108024],[-49.92143786745868,1.7042953712337123],[-49.940573765797666,0.9936916358963543],[-50.093660952509524,0.702582143001429]],[[-38.00310118459185,-9.514736694086942],[-37.967741372443726,-9.962327295092951],[-37.73603060342604,-10.331482228442287],[-37.813406192361924,-10.690491254532546],[-38.211516077370774,-10.708831933039331],[-38.228987984549846,-10.915652350243505],[-37.96524538570386,-11.402265671476716],[-37.67446293050931,-11.567331778037783],[-37.34249669410694,-11.443629754917552]],[[-37.34249669410694,-11.443629754917552],[-38.00351718238183,-12.576849550315504],[-38.347547354693546,-12.950296982889832],[-38.56178621653217,-12.919469033910342],[-38.96613606839069,-13.290965330473306],[-38.887928483874845,-13.44783666578666],[-39.06472754461545,-14.636468723907242],[-38.92245630044301,-15.708813075750761],[-39.180790928019285,-17.108558050300505],[-39.137111160071605,-17.684143173651737],[-39.44286953570536,-17.94442471756718],[-39.67000432903329,-18.348700099120993]],[[-39.67000432903329,-18.348700099120993],[-40.22203339633396,-17.979935392973932]],[[-40.22203339633396,-17.979935392973932],[-40.22369738749388,-17.733702028340286],[-40.599343391843924,-17.389911863138632],[-40.47953602833029,-16.876372864948653],[-39.85637133894339,-16.11347868450685],[-40.23035335213353,-15.80324805870059],[-40.698766863648636,-15.66822944671447],[-41.33066750662507,-15.744323751157513],[-41.35562737402374,-15.501992658546587],[-41.800329011510115,-15.100448867408677],[-42.09568744239443,-15.18200635268353],[-43.17603370296703,-14.650126675986762],[-43.58038355482555,-14.750415066970671],[-43.88322994592946,-14.652858266402667],[-43.78297447854479,-14.338725368573687],[-44.2401560497305,-14.240388113601139],[-44.55673036790368,-14.336774232562327],[-45.09503150813508,-14.752366202982031],[-45.9719548494085,-15.154300221322217],[-46.036850504645045,-14.873726862888631]],[[-46.036850504645045,-14.873726862888631],[-45.90705919417195,-14.352773547855481],[-46.26772927808278,-13.943425212672128],[-46.2731372493525,-13.014684471264715],[-46.11381009579096,-12.917517897898982]],[[-46.11381009579096,-12.917517897898982],[-46.30433708360084,-12.949516528485287],[-46.2485933797438,-12.436367757497578],[-46.39502460181602,-12.02584874070741],[-46.25566534217343,-11.620792904749049],[-46.615503430504305,-11.301587053290536],[-46.21073758085581,-10.649127171091713],[-45.6969803102331,-10.263192468044682],[-45.72235617542176,-10.15470930581306]],[[-45.72235617542176,-10.15470930581306],[-45.6029648096981,-10.107491814338147],[-45.24770269705697,-10.821607594495948],[-44.93071238109381,-10.92852984791848],[-44.58917819552196,-10.631957174191744],[-44.16527644753448,-10.642493308653087],[-43.69270295811958,-10.077054092560928],[-43.84911812715127,-9.547515779077791],[-43.46140818689187,-9.261479239812399],[-42.987586704107045,-9.400790351023513],[-42.82035559253593,-9.618927357093572],[-42.22589475065751,-9.283331963139634],[-41.837768812608125,-9.241967879698798],[-41.358123360763614,-8.707356612586128]],[[-41.358123360763614,-8.707356612586128],[-41.11310066246663,-8.703454340563407],[-40.66715103161032,-9.158849485614859],[-40.77614245258453,-9.453861250532508],[-40.35764867586676,-9.376596264482647],[-40.27153713334133,-9.080413817958181],[-39.957458801908025,-9.048024960169602],[-39.890067159931604,-8.827546590885909],[-39.38338185173852,-8.533315280372804],[-39.2332066495565,-8.705405476574768],[-38.570938167911685,-8.83105863570636],[-38.32009150055501,-8.990661561435616],[-38.23689194255943,-9.329378773007733]],[[-39.57598882849829,-18.088028328003283],[-39.57598882849829,-18.088028328003283]],[[-40.0181944792448,-2.837168808808091],[-39.25234254789548,-3.221932830248303],[-38.36377126850269,-3.8814168020880224],[-37.59251136588366,-4.625189849618497],[-37.251393178101786,-4.832010266822671]],[[-37.251393178101786,-4.832010266822671],[-37.63993511394114,-4.926055022570228],[-37.90450970836709,-5.500859691516919],[-38.56386620548206,-6.35584749169492]],[[-38.56386620548206,-6.35584749169492],[-38.764793138041384,-6.910360346123461],[-38.534330362393625,-7.293563458754591],[-38.714873403244034,-7.62135430866309]],[[-38.714873403244034,-7.62135430866309],[-38.96572007060071,-7.844564268362685],[-39.66210037102371,-7.310343228452286],[-40.24616126815268,-7.433264797167972],[-40.54817566367664,-7.39229094092941]],[[-40.54817566367664,-7.39229094092941],[-40.475792048220484,-6.733977650696509],[-40.78737439291393,-6.523254961469615],[-40.93838159067591,-5.672949887718879],[-40.928813641506416,-5.171117705597059],[-41.220428092280926,-4.937371611436117],[-41.090636781807824,-4.169794704567046],[-41.234156019350195,-4.02931291174912],[-41.42301901600016,-3.367487576695769],[-41.32234755082551,-2.9210676572965752]],[[-41.32234755082551,-2.9210676572965752],[-40.43544026259263,-2.811023586255864],[-40.0181944792448,-2.837168808808091]],[[-40.0181944792448,-2.837168808808091],[-40.0181944792448,-2.837168808808091]],[[-40.723726731047314,-20.841861694436947],[-40.95710149122492,-21.303110247522476]],[[-40.95710149122492,-21.303110247522476],[-41.73584935406355,-21.102143238352387],[-41.874376618126185,-20.766157617196175]],[[-41.874376618126185,-20.766157617196175],[-41.756233245772464,-20.206181581935823],[-41.41137107788078,-20.206181581935823],[-40.90718175642757,-19.3082687895079],[-41.23207603040031,-18.796680927329277],[-40.916749705597056,-18.81502160583606],[-41.1738363398034,-18.443525309273095],[-41.09230077296773,-18.194950581425815],[-40.52654377859779,-17.891353818058185],[-40.22203339633396,-17.979935392973932]],[[-39.67000432903329,-18.348700099120993],[-39.74987590470905,-18.84116682838829],[-39.6887242295823,-19.305927426294268],[-39.80686760193602,-19.647766455484557],[-40.051890300233005,-19.81010097162972],[-40.47246406590066,-20.654162410144103]],[[-40.47246406590066,-20.654162410144103],[-40.723726731047314,-20.841861694436947]],[[-40.52654377859779,-20.65533309175092],[-40.52654377859779,-20.65533309175092]],[[-40.53611172776728,-20.685380586325866],[-40.53611172776728,-20.685380586325866]],[[-40.47246406590066,-20.654162410144103],[-40.47246406590066,-20.654162410144103]],[[-40.723726731047314,-20.841861694436947],[-40.723726731047314,-20.841861694436947]],[[-46.036850504645045,-14.873726862888631],[-46.502768029420295,-14.703978029900302],[-46.50235203163032,-15.051670467124673],[-46.91834982160822,-15.049329103911042],[-46.94871766027661,-15.554283103651038],[-46.82433432107321,-15.885195771177713],[-47.30855574860749,-16.03543324405244]],[[-47.30855574860749,-16.03543324405244],[-47.416715174001745,-15.500041522535227],[-48.19712702800028,-15.500431749737501],[-48.27866259483595,-16.051042332143325],[-47.30855574860749,-16.05026187773878]],[[-47.30855574860749,-16.05026187773878],[-47.44417102814029,-16.54038724379244],[-47.126348716597164,-16.98017330075301],[-47.53818652867529,-17.388350954329546],[-47.26362798728988,-17.620145912479128],[-47.28276388562886,-18.057590606226064],[-47.9616722788728,-18.495425527175275],[-48.27866259483595,-18.331139875018753],[-48.93635510079101,-18.30577510687107],[-49.408096594625945,-18.644492318443184],[-49.49712012168122,-18.49308416396164],[-50.308731809928105,-18.697953445154454],[-50.93522448163482,-19.46709126083261]],[[-50.93522448163482,-19.46709126083261],[-51.65739664503646,-19.13734927491275],[-52.448624441574424,-18.690539128311286],[-52.916205957509575,-18.638638910409107],[-52.75854279510796,-18.348309871918723],[-53.10049297846979,-18.30967737889379],[-53.071373133171335,-18.03885970051701]],[[-53.071373133171335,-18.03885970051701],[-53.2377722491625,-17.713800441024414],[-53.21822035303353,-17.29898892500925],[-53.01063745583456,-16.857641959239594],[-52.603791617236176,-16.464292939349395],[-52.68657517744178,-16.315226148081482],[-52.25227348470485,-15.892610088020884],[-51.89160340079401,-15.829783508455087],[-51.651572675976766,-15.179274762267625],[-51.149879341263414,-14.982600252322527],[-50.831225034140346,-14.07298064382644],[-50.87116082197822,-13.732702523445237],[-50.664825918149184,-13.441983257752579],[-50.51049073806739,-12.860154499164995]],[[-50.51049073806739,-12.860154499164995],[-50.17478052155522,-12.4234902598226],[-50.29209189832899,-12.839472457444575],[-49.36899280236803,-13.27418556077561],[-49.11856213280133,-12.78991360275603],[-48.86937945660457,-12.803961782037824],[-48.46003763126632,-13.279258514405146],[-48.14554330204302,-13.15282490086901],[-47.678377783897844,-13.467348025900261],[-47.617642106561064,-13.10443672778728],[-47.42669912096122,-13.289014194461945],[-46.75028671445715,-12.968637661396617],[-46.11381009579096,-12.917517897898982]],[[-47.03108522269223,-8.98558860780608],[-46.89754993210933,-8.576240272622726],[-46.48696011340114,-8.199671022430227],[-46.60427149017491,-7.89568403186032],[-47.043149158601594,-8.05333582157822],[-47.74452143250433,-7.162056891588918],[-47.546090486684875,-7.014551009130091],[-47.37844337732378,-6.270387734397346],[-47.55482644027441,-5.465349016110164],[-47.87348074739748,-5.272967005390054],[-48.51910931744318,-5.191799747317475],[-48.754564066570666,-5.34867108263083]],[[-48.754564066570666,-5.34867108263083],[-47.815657054590545,-4.614263487954883],[-47.67962577726777,-4.608410079920802],[-47.087660922129224,-3.8552715795357955],[-46.415824491314915,-2.5288893190131922],[-46.21822554107541,-1.9127205666256692],[-46.10382614883149,-1.2017266040860406]],[[-46.10382614883149,-1.2017266040860406],[-45.81429168700687,-1.2547975035950358]],[[-45.81429168700687,-1.2547975035950358],[-45.55429306827068,-1.318014310363104]],[[-45.55429306827068,-1.318014310363104],[-45.55762105059051,-1.3289406720267252]],[[-45.55762105059051,-1.3289406720267252],[-45.51518927601276,-1.4062056580765798]],[[-45.51518927601276,-1.4062056580765798],[-45.103767461724615,-1.402303386053859]],[[-45.103767461724615,-1.402303386053859],[-45.10667944625446,-1.3941086148061501]],[[-45.10667944625446,-1.3941086148061501],[-45.097111497084974,-1.4682517832378323]],[[-45.097111497084974,-1.4682517832378323],[-45.06882364736647,-1.4659104200242012]],[[-45.06882364736647,-1.4659104200242012],[-45.070071640736415,-1.453032922349223]],[[-45.070071640736415,-1.453032922349223],[-44.69608962754628,-1.5568333581535825],[-44.61372206513066,-1.8299923997440004]],[[-44.61372206513066,-1.8299923997440004],[-44.32543559667597,-2.4996222788427893],[-43.958525545915464,-2.482062054740549],[-43.61491137139372,-2.219048920409204],[-42.74422799696997,-2.5573759047790503]],[[-42.74422799696997,-2.5573759047790503],[-42.5441330599906,-2.6869313359333624],[-41.81364094078941,-2.7388315538355386]],[[-41.81364094078941,-2.7388315538355386],[-41.79658503140032,-2.9663340127601288],[-42.209670836848375,-3.4357773370933735],[-42.48714136276363,-3.448654834768348],[-42.988834697476975,-4.233791965739659],[-42.799971700827015,-5.198823836958372],[-43.080354211272116,-5.599587173691738],[-43.049570374813754,-6.099468219802201],[-42.82909154612547,-6.337116585985861],[-43.00089863338634,-6.754269465214655],[-43.45683221120211,-6.845972857748578],[-43.79503841445415,-6.702369247312475],[-44.114108719367195,-6.804608774307745],[-44.30588370054701,-7.1167905361253645],[-44.68776967174672,-7.39424207694077],[-45.46859752353524,-7.6888636146561495],[-45.580916926829275,-8.155575348573489],[-45.99400273227732,-8.926274073060732],[-45.79723577761778,-9.416789666316664],[-45.94574698863989,-10.258119514415146]],[[-45.94574698863989,-10.258119514415146],[-46.32721696204962,-10.183195891578919],[-46.53729584598847,-9.557271459134594],[-47.03108522269223,-8.98558860780608]],[[-44.81340100432004,-1.8022862683826837],[-44.81340100432004,-1.8022862683826837]],[[-44.56921030160302,-1.9197446562665625],[-44.56921030160302,-1.9197446562665625]],[[-45.74690004503046,-1.3718656642766476],[-45.74690004503046,-1.3718656642766476]],[[-45.88750729804298,-1.1802641079610794],[-45.88750729804298,-1.1802641079610794]],[[-45.822611642806436,-1.3105999935199364],[-45.822611642806436,-1.3105999935199364]],[[-44.69317764301643,-1.8163344476644774],[-44.69317764301643,-1.8163344476644774]],[[-45.389973941229414,-1.6899008341283448],[-45.389973941229414,-1.6899008341283448]],[[-44.80092107062071,-1.6262938001580025],[-44.80092107062071,-1.6262938001580025]],[[-45.127895333543336,-1.5439558604786043],[-45.127895333543336,-1.5439558604786043]],[[-45.82302764059641,-1.2485538683586839],[-45.82302764059641,-1.2485538683586839]],[[-45.575508955559556,-1.3355745344653442],[-45.575508955559556,-1.3355745344653442]],[[-45.79931576656767,-1.3316722624426234],[-45.79931576656767,-1.3316722624426234]],[[-44.834200893818945,-1.8225780829008293],[-44.834200893818945,-1.8225780829008293]],[[-45.36875805394054,-1.4362531526515312],[-45.36875805394054,-1.4362531526515312]],[[-45.905395203012034,-1.240359097110975],[-45.905395203012034,-1.240359097110975]],[[-45.594644853898544,-1.339086579285791],[-45.594644853898544,-1.339086579285791]],[[-45.39246992796929,-1.5646379021990242],[-45.39246992796929,-1.5646379021990242]],[[-44.97064816893169,-1.3445497601176015],[-44.97064816893169,-1.3445497601176015]],[[-44.92447241424415,-1.339086579285791],[-44.92447241424415,-1.339086579285791]],[[-44.90949649380494,-1.3254286272062714],[-44.90949649380494,-1.3254286272062714]],[[-45.67784441189412,-1.3000638590585893],[-45.64040461079611,-1.3105999935199364]],[[-45.64040461079611,-1.3105999935199364],[-45.67784441189412,-1.3000638590585893]],[[-45.6595405091351,-1.296942041440417],[-45.6595405091351,-1.296942041440417]],[[-44.80175306620066,-1.5291272267922693],[-44.80175306620066,-1.5291272267922693]],[[-44.77429721206212,-1.5271760907809124],[-44.77429721206212,-1.5271760907809124]],[[-45.68533237211372,-1.1958731960519629],[-45.68533237211372,-1.1958731960519629]],[[-45.54181313457135,-1.1950927416474144],[-45.54181313457135,-1.1950927416474144]],[[-44.611226078390786,-1.7843358170781727],[-44.611226078390786,-1.7843358170781727]],[[-44.72895345295453,-1.561906311783119],[-44.72895345295453,-1.561906311783119]],[[-45.798483770987716,-1.126802981249817],[-45.798483770987716,-1.126802981249817]],[[-45.79432379308793,-1.1884588792087953],[-45.79432379308793,-1.1884588792087953]],[[-45.55762105059051,-1.3289406720267252],[-45.55429306827068,-1.318014310363104]],[[-45.55429306827068,-1.318014310363104],[-45.55762105059051,-1.3289406720267252]],[[-45.09003953465535,-1.419083155751558],[-45.09003953465535,-1.419083155751558]],[[-45.097111497084974,-1.4682517832378323],[-45.06882364736647,-1.4659104200242012]],[[-45.06882364736647,-1.4659104200242012],[-45.097111497084974,-1.4682517832378323]],[[-45.03595982195822,-1.3902063427834292],[-45.03595982195822,-1.3902063427834292]],[[-44.749337344663445,-1.6918519701397017],[-44.749337344663445,-1.6918519701397017]],[[-45.67784441189412,-1.3000638590585893],[-45.67784441189412,-1.3000638590585893]],[[-44.468538836428365,-2.0758355371753723],[-44.468538836428365,-2.0758355371753723]],[[-44.48018677454775,-2.1062732589525908],[-44.48018677454775,-2.1062732589525908]],[[-45.39746190144902,-1.3952792964129657],[-45.39746190144902,-1.3952792964129657]],[[-45.070071640736415,-1.453032922349223],[-45.070071640736415,-1.453032922349223]],[[-44.722713486104865,-1.6618044755647574],[-44.722713486104865,-1.6618044755647574]],[[-44.4452429601896,-2.0251060008800117],[-44.4452429601896,-2.0251060008800117]],[[-44.622458018720195,-1.8120419484394859],[-44.622458018720195,-1.8120419484394859]],[[-45.08920753907539,-1.431570426224262],[-45.08920753907539,-1.431570426224262]],[[-45.51518927601276,-1.4062056580765798],[-45.51518927601276,-1.4062056580765798]],[[-45.047607760077604,-1.3273797632176354],[-45.047607760077604,-1.3273797632176354]],[[-45.79057981297814,-1.2473831867518683],[-45.79057981297814,-1.2473831867518683]],[[-45.00184800318004,-1.4011327044470434],[-45.00184800318004,-1.4011327044470434]],[[-44.61372206513066,-1.8299923997440004],[-44.61372206513066,-1.8299923997440004]],[[-45.62626068593686,-1.3184045375653781],[-45.62626068593686,-1.3184045375653781]],[[-44.830872911499114,-1.5603454029740291],[-44.830872911499114,-1.5603454029740291]],[[-45.55886904396044,-1.2602606844268465],[-45.55886904396044,-1.2602606844268465]],[[-42.74422799696997,-2.5573759047790503],[-42.74422799696997,-2.5573759047790503]],[[-44.009277276292764,-2.399724115061151],[-44.009277276292764,-2.399724115061151]],[[-44.611226078390786,-1.7843358170781727],[-44.611226078390786,-1.7843358170781727]],[[-45.64040461079611,-1.3105999935199364],[-45.64040461079611,-1.3105999935199364]],[[-45.65371654007541,-1.3609393026130263],[-45.65371654007541,-1.3609393026130263]],[[-45.642068601956026,-1.246992959549594],[-45.642068601956026,-1.246992959549594]],[[-44.009277276292764,-2.399724115061151],[-44.009277276292764,-2.399724115061151]],[[-45.139127273872745,-1.4686420104401066],[-45.139127273872745,-1.4686420104401066]],[[-44.77554520543205,-1.5689304014240122],[-44.77554520543205,-1.5689304014240122]],[[-44.87580067281673,-1.3398670336903393],[-44.87580067281673,-1.3398670336903393]],[[-45.03595982195822,-1.3902063427834292],[-45.03595982195822,-1.3902063427834292]],[[-45.135799291552914,-1.488543597755978],[-45.135799291552914,-1.488543597755978]],[[-44.45772289388894,-2.1335891631116333],[-44.45772289388894,-2.1335891631116333]],[[-45.81429168700687,-1.2547975035950358],[-45.81429168700687,-1.2547975035950358]],[[-47.03108522269223,-8.98558860780608],[-47.03108522269223,-8.98558860780608]],[[-45.103767461724615,-1.402303386053859],[-45.103767461724615,-1.402303386053859]],[[-45.10667944625446,-1.3941086148061501],[-45.10667944625446,-1.3941086148061501]],[[-45.55886904396044,-1.2602606844268465],[-45.55886904396044,-1.2602606844268465]],[[-44.75682530488305,-1.5927342607626116],[-44.75682530488305,-1.5927342607626116]],[[-45.763955954419544,-1.1880686520065211],[-45.763955954419544,-1.1880686520065211]],[[-41.874376618126185,-20.766157617196175],[-42.36858199261993,-21.639095868678687],[-42.2712385097651,-21.71479994591946],[-43.07286625105252,-22.093320332123326],[-43.7771505094851,-22.066394655166555],[-44.80882502863029,-22.404721639536398]],[[-44.80882502863029,-22.404721639536398],[-45.40994183514836,-22.651345231372318],[-45.736916098070985,-22.60803001192012],[-45.76561994557946,-22.841776106081063],[-46.34468886922869,-22.904212458444587],[-46.45409628799288,-22.521789800218006],[-46.66625516088161,-22.41408709239093],[-46.690383032700325,-21.836550833028333],[-46.49985604489045,-21.55402633858339],[-46.66542316530166,-21.361254100661007],[-47.01070133098331,-21.421739317013174],[-47.23950011547116,-20.88478668668687],[-47.09681287350874,-20.64401650288503],[-47.23076416188162,-20.218668852408527],[-47.465802913219136,-19.963850489324898],[-48.11143148326484,-20.143355002370026],[-48.99168280685807,-20.164817498494987],[-49.2171536090261,-20.303348155301556],[-49.29702518470185,-19.959948217302177],[-49.855294218852194,-19.946290265222654],[-50.471386945809456,-19.77927302265023],[-51.000120136871374,-20.084820922029223]],[[-51.000120136871374,-20.084820922029223],[-50.93522448163482,-19.46709126083261]],[[-47.30855574860749,-16.05026187773878],[-47.30855574860749,-16.03543324405244]],[[-53.87175288108881,-17.92140131263313],[-53.071373133171335,-18.03885970051701]],[[-51.000120136871374,-20.084820922029223],[-51.35039027603277,-20.362662690046903],[-51.864979542235425,-21.13023959691597],[-51.92821120631207,-21.455298856408568],[-52.48606424267243,-22.214680992029923],[-53.10465295636956,-22.62129773679737]],[[-53.10465295636956,-22.62129773679737],[-53.53437867341674,-22.88196950791508],[-53.77066541812418,-23.37170464676647],[-53.98240829322293,-23.459505767277676],[-54.129255513085134,-23.981629763917642],[-54.28691867548676,-24.069430884428847]],[[-54.28691867548676,-24.069430884428847],[-54.670884635636355,-23.811880930929313],[-55.0598425692657,-23.992165898378985],[-55.44297653383534,-23.916852048340488],[-55.56153590397904,-23.475505082570827],[-55.609791647616476,-22.68880704279043],[-55.852318359173594,-22.28140984361844],[-56.20924446297464,-22.276336889988904],[-56.39727546404464,-22.078101471234717],[-56.841145105951064,-22.302091885338854],[-57.991378995239955,-22.090198514505147],[-57.96641912784128,-21.52514952561526],[-57.81665992344924,-20.97961189683897],[-58.16693006261063,-20.17145136093361],[-57.85867570023701,-19.97009412456125],[-58.13115425267253,-19.75781052652527],[-57.78338010025101,-19.03315861190612],[-57.55707730250303,-18.2398267096871],[-57.75176426821268,-17.563953195351957]],[[-57.75176426821268,-17.563953195351957],[-57.44600589257893,-17.874183821158212],[-57.114871651756516,-17.78052929261293],[-56.73340167834679,-17.309525059470598],[-56.044509338143385,-17.17099440266403],[-55.12681821345214,-17.652144543065432],[-54.58102911300114,-17.467567076390765],[-54.33517441912419,-17.66111976871769],[-53.679561902119026,-17.252942115141153],[-53.705769762887634,-17.661900223122235],[-53.87175288108881,-17.92140131263313]],[[-53.87175288108881,-17.92140131263313],[-53.87175288108881,-17.92140131263313]],[[-60.360902406954075,-13.299160101721018],[-60.07843990755908,-12.880836540885412],[-60.068039962809635,-12.615482043340435],[-59.77392952529526,-12.34037186573866],[-60.11047173738738,-11.582160411724118],[-59.919944749577496,-11.397582945049454],[-59.976104451224515,-11.122082540245405],[-60.45949388317884,-10.989405291472917],[-61.54982409071091,-10.98589324665247],[-61.46121656144562,-10.419673576155763],[-61.599743825508256,-10.154319078610786],[-61.47702447746478,-9.626731901139014],[-61.62761567743678,-9.256796513385137],[-61.582271918329184,-8.79827955071551]],[[-58.13656222394224,-7.355999811118114],[-57.642772847238476,-8.213328974509746],[-57.59243711465115,-8.756135012870132],[-57.19224724069241,-8.929786117881182],[-56.99506428824289,-9.233382881248815],[-56.671418007640085,-9.366840584425844],[-54.613060942829435,-9.534638281402817],[-50.22428425856259,-9.84057640798408]],[[-50.22428425856259,-9.84057640798408],[-50.60284224744248,-10.660443759957602],[-50.7417855092951,-11.454556116581166],[-50.626554121471216,-12.45783025362254],[-50.51049073806739,-12.860154499164995]],[[-53.87175288108881,-17.92140131263313],[-53.87175288108881,-17.92140131263313]],[[-57.75176426821268,-17.563953195351957],[-58.39489685151852,-17.183481673136733],[-58.42984066587666,-16.320689328913293],[-60.17120741472415,-16.265277066190663],[-60.237767061120614,-15.47350607278073],[-60.56432532625327,-15.108253411454118],[-60.243591030180305,-15.096156368183685],[-60.27146288210882,-14.619688954209543],[-60.45242192074921,-14.313360600426005],[-60.38877425888259,-13.978155433674338],[-60.707844563795646,-13.69250912161122]],[[-60.707844563795646,-13.69250912161122],[-60.360902406954075,-13.299160101721018]],[[-60.360902406954075,-13.299160101721018],[-60.360902406954075,-13.299160101721018]],[[-46.95162964480645,-0.7342344157641563],[-46.651279240442406,-0.7826225888458893],[-46.46075225263253,-1.0171491374113728],[-46.204081616216165,-0.8860327974479745],[-46.10382614883149,-1.2017266040860406]],[[-48.754564066570666,-5.34867108263083],[-48.393061987079875,-5.393937438094383],[-48.137639344033445,-5.602318764107643],[-48.4359097594476,-6.193122748347484],[-48.38224604454045,-6.379261123831242],[-48.65139661465615,-6.639542667746678],[-49.20924965101651,-6.9251889798098],[-49.184705781407814,-7.234639151211514],[-49.37772875595756,-7.496091376733769],[-49.14976196704967,-7.809834047360475],[-49.2828812598426,-8.379175535475358],[-49.591967617796186,-8.839253406954072],[-50.05039718235183,-9.312599003310034],[-50.22428425856259,-9.84057640798408]],[[-58.89492619507195,0.26396676764767335],[-58.89492619507195,1.228218184461845]],[[-58.89492619507195,1.228218184461845],[-58.49556831669317,1.268411586295862],[-58.33166518744188,1.5911294825748215],[-57.513813532345324,1.7234165041450424],[-57.11112767164672,2.0301350851308513],[-56.797465338003384,1.8541426169061666],[-56.48255501099011,1.9548212350923464],[-55.90348608734088,1.888482610706106],[-56.138108840888414,2.2662225425054245],[-55.937597906119066,2.5335281760617576],[-55.384736843238436,2.418801378593784],[-54.95376313282134,2.5842577123571218],[-54.87181156819568,2.4340202394823933]],[[-50.093660952509524,0.702582143001429],[-50.060797127101274,0.338890390483904],[-49.67724716474165,0.36620629464294296],[-49.47507223881239,0.07938930097300556],[-48.91305922455225,-0.2327924608446068],[-48.41178188762888,-0.25698654738547333],[-48.47210156717567,-0.49892741279413144],[-47.99994407555076,-0.6639935193551949],[-47.897192621426214,-0.5523885395053938],[-47.32228367567676,-0.5937526229462335],[-46.95162964480645,-0.7342344157641563]],[[-46.40126456866569,-0.9523714218342221],[-46.40126456866569,-0.9523714218342221]],[[-46.07512230132302,-1.0667079920999214],[-46.07512230132302,-1.0667079920999214]],[[-47.03399720722207,-0.6952116955369547],[-47.03399720722207,-0.6952116955369547]],[[-46.37505670789708,-0.9956866412864116],[-46.37505670789708,-0.9956866412864116]],[[-47.84311290872909,-0.6624326105461051],[-47.84311290872909,-0.6624326105461051]],[[-46.44411234103342,-1.0097348205682053],[-46.44411234103342,-1.0097348205682053]],[[-46.32680096425965,-0.9504202858228581],[-46.32680096425965,-0.9504202858228581]],[[-46.60759947249473,-0.8310107619276224],[-46.60759947249473,-0.8310107619276224]],[[-46.608015470284705,-0.8587168932889355],[-46.608015470284705,-0.8587168932889355]],[[-47.03482920280203,-0.7205764636846368],[-47.03482920280203,-0.7205764636846368]],[[-46.46782421506215,-0.9640782379023776],[-46.46782421506215,-0.9640782379023776]],[[-46.20657760295603,-0.9406646057660595],[-46.20657760295603,-0.9406646057660595]],[[-46.95162964480645,-0.7342344157641563],[-46.95162964480645,-0.7342344157641563]],[[-47.02151727352274,-0.7155035100551004],[-47.02151727352274,-0.7155035100551004]],[[-46.270225264822656,-0.9336405161251662],[-46.270225264822656,-0.9336405161251662]],[[-34.969229302283026,-6.487744286062863],[-34.79326223712237,-7.154252347543476],[-34.83361402275023,-7.548772049040494]],[[-34.83361402275023,-7.548772049040494],[-35.243371845878464,-7.373950262422625],[-35.53124231654317,-7.62135430866309],[-36.61075658153582,-7.9475842497624996],[-36.99056256378564,-8.302691003830041],[-37.34915265874659,-7.94797447696477],[-36.983906599145996,-7.481652970249705],[-37.23267327755278,-7.274832553045531],[-38.07673279341794,-7.830125861878621],[-38.714873403244034,-7.62135430866309]],[[-38.56386620548206,-6.35584749169492],[-38.28847566851669,-6.505304510165104],[-37.25472116042161,-6.028056641786421],[-37.484351940489404,-6.709783564155643],[-37.190241502975034,-6.824900588825891],[-36.83456339254393,-6.7308558330783335],[-36.60950858816589,-6.936505568675688],[-36.49926917382174,-6.357798627706281],[-35.145196367443674,-6.552131774437747],[-34.969229302283026,-6.487744286062863]],[[-34.86148587467875,-6.982162151341516],[-34.86148587467875,-6.982162151341516]],[[-34.83361402275023,-7.548772049040494],[-34.83735800286003,-8.005728102901031],[-35.15185233208332,-8.913006348183483]],[[-41.358123360763614,-8.707356612586128],[-40.63262321504215,-8.139185806078064],[-40.543183690196905,-7.835198815508157],[-40.70459083270833,-7.458239338113383],[-40.54817566367664,-7.39229094092941]],[[-32.400442949169495,-3.8369309010290102],[-32.400442949169495,-3.8369309010290102]],[[-32.400442949169495,-3.8369309010290102],[-32.400442949169495,-3.8369309010290102]],[[-45.72235617542176,-10.15470930581306],[-45.94574698863989,-10.258119514415146]],[[-41.81364094078941,-2.7388315538355386],[-41.32234755082551,-2.9210676572965752]],[[-48.09853555177552,-25.31074361485615],[-48.5939889196392,-25.976471221932222]],[[-48.5939889196392,-25.976471221932222],[-49.16681787643877,-26.00066530847309],[-49.519584002340025,-26.22660685858859],[-49.830334351453516,-26.069345296072964]],[[-49.830334351453516,-26.069345296072964],[-49.830334351453516,-26.069345296072964]],[[-49.830334351453516,-26.069345296072964],[-50.33202768616687,-26.134123011650118],[-50.5629064596046,-26.006128489304896],[-50.73138556454565,-26.202802999249997],[-51.20770303407035,-26.29645752779528],[-51.23890286831869,-26.62776042252423],[-52.01057876872769,-26.566104524565247],[-52.67825522164222,-26.35226001772018],[-53.090093033720336,-26.390112056340566],[-53.64253809881099,-26.25236185393854]],[[-53.64253809881099,-26.25236185393854],[-53.91543264903649,-25.615901287032873],[-54.59309304891049,-25.59170720049201],[-54.25779883018831,-24.356638105301055],[-54.28691867548676,-24.069430884428847]],[[-53.10465295636956,-22.62129773679737],[-52.57966374541746,-22.568617064490645],[-52.2231536394064,-22.673978409104095],[-52.12497816097161,-22.51866798259983],[-51.559221166601674,-22.69661158683587],[-51.26344673792738,-22.668515228272284],[-50.70933768167682,-22.95299085872859],[-49.96095765750658,-22.930357680996813],[-49.58947163105631,-23.43531168073681],[-49.61027152055521,-23.85129387835879],[-49.200097699637,-24.34415083482835],[-49.31158510735108,-24.662966459084593],[-48.61603680250803,-24.66803941271413],[-48.58234098151982,-25.051242525345256],[-48.25120674069741,-24.97827003852039],[-48.09853555177552,-25.31074361485615]],[[-44.512634602166024,-23.292878751907523],[-44.723961479474795,-23.36741214754148]],[[-44.723961479474795,-23.36741214754148],[-44.792185117031174,-22.98147744449445],[-44.16070047184472,-22.677880681126815],[-44.644921899379,-22.602176603886043],[-44.80882502863029,-22.404721639536398]],[[-40.95710149122492,-21.303110247522476],[-41.06401292324924,-21.486907259792602],[-40.97457339840399,-21.970008536205363],[-41.76663319052191,-22.353992103241033],[-41.997927961749625,-22.608420239122395],[-41.886440554035545,-22.776998390503906]],[[-41.886440554035545,-22.776998390503906],[-42.07613554626546,-22.95533222194222],[-43.04083442122422,-22.97601426366264],[-43.23801737367374,-22.861677693396935]],[[-43.23801737367374,-22.861677693396935],[-43.17728169633696,-22.895627459994603]],[[-43.17728169633696,-22.895627459994603],[-43.535455793507936,-23.05132811370114],[-43.80502236141362,-22.91435836570366],[-44.59916214248143,-23.0630349297693],[-44.512634602166024,-23.292878751907523]],[[-43.35990472613726,-22.993184260562607],[-43.35990472613726,-22.993184260562607]],[[-44.23308408730088,-23.0895703795238],[-44.23308408730088,-23.0895703795238]],[[-43.8279022398624,-23.05718152173522],[-43.8279022398624,-23.05718152173522]],[[-43.18268966760668,-22.780900662526626],[-43.18268966760668,-22.780900662526626]],[[-43.91318178680787,-22.938942679446797],[-43.91318178680787,-22.938942679446797]],[[-43.23801737367374,-22.861677693396935],[-43.23801737367374,-22.861677693396935]],[[-43.92940570061701,-23.006842212642127],[-43.92940570061701,-23.006842212642127]],[[-44.58377022425225,-23.203516722587228],[-44.58377022425225,-23.203516722587228]],[[-44.04588508181082,-22.99942789579896],[-44.04588508181082,-22.99942789579896]],[[-44.68735367395674,-23.164103775157756],[-44.68735367395674,-23.164103775157756]],[[-41.69840955296553,-22.410184820368208],[-41.69840955296553,-22.410184820368208]],[[-44.512634602166024,-23.292878751907523],[-44.512634602166024,-23.292878751907523]],[[-43.10864206099061,-22.758657711997124],[-43.10864206099061,-22.758657711997124]],[[-43.10864206099061,-22.758657711997124],[-43.10864206099061,-22.758657711997124]],[[-43.17728169633696,-22.895627459994603],[-43.17728169633696,-22.895627459994603]],[[-44.644505901589014,-23.073961291432916],[-44.644505901589014,-23.073961291432916]],[[-43.86035006748068,-22.949478813908144],[-43.86035006748068,-22.949478813908144]],[[-41.68676161484615,-22.40159982191822],[-41.68676161484615,-22.40159982191822]],[[-44.58377022425225,-23.203516722587228],[-44.58377022425225,-23.203516722587228]],[[-44.57628226403264,-23.185956498484988],[-44.57628226403264,-23.185956498484988]],[[-43.90985380448805,-22.983038353303535],[-43.90985380448805,-22.983038353303535]],[[-44.63951392810928,-23.228101036330365],[-44.63951392810928,-23.228101036330365]],[[-41.886440554035545,-22.776998390503906],[-41.886440554035545,-22.776998390503906]],[[-44.1290846398064,-23.03532879840799],[-44.1290846398064,-23.03532879840799]],[[-43.91318178680787,-22.938942679446797],[-43.91318178680787,-22.938942679446797]],[[-43.51423990621906,-23.065376292982933],[-43.51423990621906,-23.065376292982933]],[[-43.14816185103851,-23.059913112151122],[-43.14816185103851,-23.059913112151122]],[[-44.63951392810928,-23.228101036330365],[-44.63951392810928,-23.228101036330365]],[[-43.94354962547626,-23.02323175513755],[-43.94354962547626,-23.02323175513755]],[[-44.692761645226454,-23.21561376585766],[-44.692761645226454,-23.21561376585766]],[[-43.9539495702257,-23.00489107663077],[-43.9539495702257,-23.00489107663077]],[[-43.20806553279533,-23.040401752037525],[-43.20806553279533,-23.040401752037525]],[[-44.67237775351754,-23.099326059580598],[-44.67237775351754,-23.099326059580598]],[[-43.95353357243573,-23.025182891148916],[-43.95353357243573,-23.025182891148916]],[[-43.86035006748068,-22.949478813908144],[-43.86035006748068,-22.949478813908144]],[[-44.67487374025741,-23.11103287564876],[-44.67487374025741,-23.11103287564876]],[[-37.251393178101786,-4.832010266822671],[-36.68938016384164,-5.0919015835358366],[-35.94890409768098,-5.043903637656378],[-35.48881054196542,-5.15784998071981],[-35.260843753057536,-5.480567876998773],[-34.969229302283026,-6.487744286062863]],[[-66.45901401024011,-9.87530662898629],[-66.6191731593816,-9.893647307493076]],[[-60.360902406954075,-13.299160101721018],[-60.360902406954075,-13.299160101721018]],[[-60.707844563795646,-13.69250912161122],[-60.98781107645077,-13.49973688368884],[-61.86723040446405,-13.527443015050153],[-62.29862011267113,-13.150093310453105],[-62.793657482744834,-12.99478288394884],[-63.0898479092091,-12.661528853208534],[-63.78581221184212,-12.427392531845321],[-63.94014739192392,-12.526120014020144],[-64.41563286586866,-12.44105048392484],[-65.25553240383404,-11.71522788769888],[-65.36285983364834,-11.146666853988542],[-65.25095642814429,-10.983551883438835],[-65.42900348225483,-10.4805490197102],[-65.28922822482225,-10.209731341333416],[-65.35412388005881,-9.723118020100202],[-66.45901401024011,-9.87530662898629]],[[-66.45901401024011,-9.87530662898629],[-66.45901401024011,-9.87530662898629]],[[-63.371894410814114,2.2119809613896138],[-63.4060062295923,2.43597137549375],[-64.05829076427764,2.503090454284539],[-63.98216316871169,2.717715415534151],[-64.23300983606836,3.129795341133409],[-64.18517009022091,3.560215945239449],[-64.8099987707677,4.175214016020156],[-64.17102616536165,4.1291672061520615],[-63.95886729247293,3.8880067951479518],[-63.49835773896739,3.8431306668866654],[-63.20549529482295,3.951613829118287],[-62.98418447055471,3.6101650271302717],[-62.74664973247733,3.6733818338983397],[-62.76578563081631,4.012879499874998],[-62.41717948281483,4.184969696076962],[-62.147196917119174,4.079608351463513],[-61.55897604209042,4.254430138081382],[-61.32144130401304,4.5350034965149675],[-60.995715034460346,4.5182237268172685],[-60.58346122459225,4.956058647766476],[-60.69661262346624,5.229217689356894],[-60.21447118488185,5.270972],[-59.99607234514345,5.084833624516243],[-60.162055463344636,4.50846804676047],[-59.67492205128052,4.372668980369802],[-59.52557884467845,3.9672229172091704],[-59.870025014780154,3.562947535655354],[-59.989832378293784,2.6864972393523914],[-59.738569713147136,2.292757992259922],[-59.745225677786785,1.8521914808948097],[-59.2818041397514,1.4108445151251487],[-58.89492619507195,1.228218184461845]],[[-52.043858591925925,-31.573890211322116],[-52.249361500175006,-31.874755384273847],[-52.062994490264906,-32.04606512607126],[-52.306353197401975,-32.36097847830479],[-52.51144010786108,-32.902613835058354],[-52.79515060062601,-33.30220649018491],[-53.37255553311533,-33.74472413756138],[-53.52273073529736,-33.68931187483875],[-53.430379225922266,-33.155481062130626],[-53.12295685912859,-32.79100885520855],[-52.83342239730398,-32.9131499695197],[-52.58548771447715,-32.52604458486585],[-52.62167952220523,-32.143231699436996],[-53.075949108861096,-32.65599024322243],[-53.643786092180925,-32.38322142883429],[-53.74528955293553,-32.078453983859845],[-54.10762362800628,-31.909485605276057],[-54.58477309311094,-31.457602505045053],[-55.23788962337623,-31.26014754069541],[-55.57651182441825,-30.840263071050714],[-56.00956552378524,-31.08064302765028],[-56.19052456242563,-30.603785386473866],[-56.8066172893829,-30.103904340363407],[-57.201815189861904,-30.284579535015354],[-57.54750935333354,-30.163218875108754],[-56.702617841888426,-29.3577899296193],[-56.58905044522446,-29.119751336233364],[-55.562367899559,-28.162133781857822],[-54.77446808534086,-27.58537797689977],[-53.83389708220082,-27.169395779277796]],[[-53.83389708220082,-27.169395779277796],[-53.075949108861096,-27.103447382093826],[-51.69858042624426,-27.480406859488596],[-50.92856851699517,-27.9685810895309],[-50.56249046181462,-28.41422055452555],[-49.854878221062215,-28.44504850350504],[-49.69180708739088,-28.62455301655017],[-49.934749796737975,-28.727572997949984],[-49.95596568402684,-29.067070663926643]],[[-49.95596568402684,-29.067070663926643],[-49.967613622146224,-29.115458837008372]],[[-49.967613622146224,-29.115458837008372],[-50.09282895692957,-29.221990863228633]],[[-50.09282895692957,-29.221990863228633],[-49.71135898351984,-29.325401071830722]],[[-49.71135898351984,-29.325401071830722],[-49.92268586082861,-29.606364657466578],[-50.308315812138126,-30.4554990496105],[-50.768825365643664,-31.10951984061841],[-51.46978164175642,-31.725688593005934],[-52.07464242838429,-32.142451245032454],[-52.062162494684955,-31.81583107673077],[-51.664052609676105,-31.770564721267217],[-51.46229368153682,-31.54384271674717]],[[-51.46229368153682,-31.54384271674717],[-51.23765487494875,-31.457602505045053],[-51.10287159099592,-31.098983706157064],[-50.7530174496245,-30.81841034772348],[-50.70517770377704,-30.347406114581148],[-51.10203959541596,-30.253751586035865]],[[-51.10203959541596,-30.253751586035865],[-51.15778329927299,-30.261946357283577]],[[-51.15778329927299,-30.261946357283577],[-51.142391381043815,-30.470717910499108]],[[-51.142391381043815,-30.470717910499108],[-51.29547856775568,-30.75051081452815]],[[-51.29547856775568,-30.75051081452815],[-51.627860801948025,-31.264830267122676],[-51.91905925493255,-31.31009662258623],[-52.043858591925925,-31.573890211322116]],[[-51.29547856775568,-30.75051081452815],[-51.29547856775568,-30.75051081452815]],[[-50.09282895692957,-29.221990863228633],[-50.09282895692957,-29.221990863228633]],[[-51.142391381043815,-30.470717910499108],[-51.142391381043815,-30.470717910499108]],[[-49.95596568402684,-29.067070663926643],[-49.95596568402684,-29.067070663926643]],[[-51.29464657217572,-30.053565031270317],[-51.29464657217572,-30.053565031270317]],[[-52.101682284732846,-31.801392670246706],[-52.101682284732846,-31.801392670246706]],[[-53.418731287802885,-33.12972606678067],[-53.418731287802885,-33.12972606678067]],[[-49.967613622146224,-29.115458837008372],[-49.967613622146224,-29.115458837008372]],[[-51.46229368153682,-31.54384271674717],[-51.46229368153682,-31.54384271674717]],[[-51.15778329927299,-30.261946357283577],[-51.15778329927299,-30.261946357283577]],[[-51.10203959541596,-30.253751586035865],[-51.10203959541596,-30.253751586035865]],[[-52.043858591925925,-31.573890211322116],[-52.043858591925925,-31.573890211322116]],[[-51.19147912026121,-30.234630453124534],[-51.19147912026121,-30.234630453124534]],[[-48.5939889196392,-25.976471221932222],[-48.49248545888459,-26.218802314543147],[-48.68675642680427,-26.669124505965062],[-48.5394932091521,-27.297780528825292],[-48.573605027930284,-27.88975519467195],[-48.81030777042771,-28.585140069120694],[-49.183873785827856,-28.799765030370306],[-49.71135898351984,-29.325401071830722]],[[-50.09282895692957,-29.221990863228633],[-50.09282895692957,-29.221990863228633]],[[-49.967613622146224,-29.115458837008372],[-49.967613622146224,-29.115458837008372]],[[-49.95596568402684,-29.067070663926643],[-49.95596568402684,-29.067070663926643]],[[-53.83389708220082,-27.169395779277796],[-53.64253809881099,-26.25236185393854]],[[-48.41053389425895,-27.389483921359215],[-48.41053389425895,-27.389483921359215]],[[-48.56528507213072,-27.477285041870424],[-48.56528507213072,-27.477285041870424]],[[-36.393605735167355,-10.49810924381244],[-36.93689884887849,-10.830973047350476],[-37.34249669410694,-11.443629754917552]],[[-44.723961479474795,-23.36741214754148],[-44.90741650485505,-23.33307215374154],[-45.42990972906729,-23.655399822818232],[-45.40453386387864,-23.819685474974754],[-45.90248321848219,-23.76505366665667],[-46.185361715667156,-23.986312490344908],[-46.60468748796488,-24.08933247174472],[-47.616394113191134,-24.79174143583436],[-48.09853555177552,-25.31074361485615]],[[-45.320918308093084,-23.914900912329124],[-45.320918308093084,-23.914900912329124]],[[-45.077975598745994,-23.535209844518448],[-45.077975598745994,-23.535209844518448]],[[-45.139959269452696,-23.79978388765888],[-45.139959269452696,-23.79978388765888]],[[-45.16325514569146,-23.566818247902482],[-45.16325514569146,-23.566818247902482]],[[-45.01848791477915,-23.754127304993055],[-45.01848791477915,-23.754127304993055]],[[-45.778931874858756,-23.867683420854213],[-45.778931874858756,-23.867683420854213]],[[-45.29346245395455,-23.596085288072885],[-45.29346245395455,-23.596085288072885]],[[-45.01848791477915,-23.754127304993055],[-45.01848791477915,-23.754127304993055]],[[-45.726100155531554,-23.800564342063424],[-45.726100155531554,-23.800564342063424]],[[-45.526005218552186,-23.849342742347424],[-45.526005218552186,-23.849342742347424]],[[-46.906701883488836,-24.389807417494175],[-46.906701883488836,-24.389807417494175]],[[-46.90961386801868,-24.373808102201025],[-46.90961386801868,-24.373808102201025]],[[-45.033463835218356,-23.548867796597968],[-45.033463835218356,-23.548867796597968]],[[-44.85125680320803,-23.399020550925513],[-44.85125680320803,-23.399020550925513]],[[-44.94860028606286,-23.386143053250535],[-44.94860028606286,-23.386143053250535]],[[-46.97991749452495,-24.37107651178512],[-46.97991749452495,-24.37107651178512]],[[-47.913416535235356,-25.166749777217774],[-47.913416535235356,-25.166749777217774]],[[-45.22856679871799,-23.81305161253613],[-45.22856679871799,-23.81305161253613]],[[-45.320918308093084,-23.914900912329124],[-45.320918308093084,-23.914900912329124]],[[-45.7140362196222,-23.790028207602077],[-45.7140362196222,-23.790028207602077]],[[-45.276822542355426,-23.853245014370145],[-45.276822542355426,-23.853245014370145]],[[-45.29720643406434,-23.92075432036321],[-45.29720643406434,-23.92075432036321]],[[-45.15618318326183,-23.83061183663837],[-45.15618318326183,-23.83061183663837]],[[-45.67160444504445,-23.804856841288416],[-45.67160444504445,-23.804856841288416]],[[-47.03108522269223,-8.98558860780608],[-47.03108522269223,-8.98558860780608]]]}